{
  "type": "FeatureCollection",
  "features": [
    {
      "type": "Feature",
      "properties": {
        "norad_id": 32143,
        "name": "FENGYUN 1C DEB",
        "group": "fengyun-1c-debris",
        "lat": 27.39039772908094,
        "lon": 138.0582454091184,
        "alt_km": 758.1595579347422,
        "timestamp": "2025-12-02T07:10:09.401121+00:00",
        "meta_object_name": "FENGYUN 1C DEB",
        "meta_object_id": "1999-025CSM",
        "meta_epoch": "2025-11-30T05:20:46.194432",
        "meta_mean_motion": 14.1795648,
        "meta_eccentricity": 0.01040275,
        "meta_inclination": 98.5959,
        "meta_ra_of_asc_node": 311.5532,
        "meta_arg_of_pericenter": 144.4666,
        "meta_mean_anomaly": 216.3496,
        "meta_ephemeris_type": 0,
        "meta_classification_type": "U",
        "meta_norad_cat_id": 32143,
        "meta_element_set_no": 999,
        "meta_rev_at_epoch": 95756,
        "meta_bstar": 0.00016328137,
        "meta_mean_motion_dot": 3.11e-06,
        "meta_mean_motion_ddot": 0,
        "tle_line1": "1 32143U 99025CSM 25334.22275688  .00000311  00000+0  16328-3 0  9992",
        "tle_line2": "2 32143  98.5959 311.5532 0104027 144.4666 216.3496 14.17956480957563"
      },
      "geometry": {
        "type": "Point",
        "coordinates": [
          138.0582454091184,
          27.39039772908094
        ]
      }
    },
    {
      "type": "Feature",
      "properties": {
        "norad_id": 32150,
        "name": "FENGYUN 1C DEB",
        "group": "fengyun-1c-debris",
        "lat": -3.377409432270772,
        "lon": 177.45720565939445,
        "alt_km": 680.0251958437175,
        "timestamp": "2025-12-02T07:10:09.401131+00:00",
        "meta_object_name": "FENGYUN 1C DEB",
        "meta_object_id": "1999-025CSU",
        "meta_epoch": "2025-11-29T19:09:50.026752",
        "meta_mean_motion": 14.60634219,
        "meta_eccentricity": 0.01723606,
        "meta_inclination": 99.1937,
        "meta_ra_of_asc_node": 355.2308,
        "meta_arg_of_pericenter": 106.7202,
        "meta_mean_anomaly": 255.299,
        "meta_ephemeris_type": 0,
        "meta_classification_type": "U",
        "meta_norad_cat_id": 32150,
        "meta_element_set_no": 999,
        "meta_rev_at_epoch": 97517,
        "meta_bstar": 0.00012171499,
        "meta_mean_motion_dot": 6.63e-06,
        "meta_mean_motion_ddot": 0,
        "tle_line1": "1 32150U 99025CSU 25333.79849568  .00000663  00000+0  12171-3 0  9997",
        "tle_line2": "2 32150  99.1937 355.2308 0172360 106.7202 255.2990 14.60634219975171"
      },
      "geometry": {
        "type": "Point",
        "coordinates": [
          177.45720565939445,
          -3.377409432270772
        ]
      }
    },
    {
      "type": "Feature",
      "properties": {
        "norad_id": 32152,
        "name": "FENGYUN 1C DEB",
        "group": "fengyun-1c-debris",
        "lat": 16.080326928513898,
        "lon": -40.54303459025937,
        "alt_km": 691.5621085816201,
        "timestamp": "2025-12-02T07:10:09.401142+00:00",
        "meta_object_name": "FENGYUN 1C DEB",
        "meta_object_id": "1999-025CSW",
        "meta_epoch": "2025-12-01T17:13:28.564608",
        "meta_mean_motion": 14.56407468,
        "meta_eccentricity": 0.0055378,
        "meta_inclination": 98.7602,
        "meta_ra_of_asc_node": 136.2993,
        "meta_arg_of_pericenter": 234.9991,
        "meta_mean_anomaly": 124.6,
        "meta_ephemeris_type": 0,
        "meta_classification_type": "U",
        "meta_norad_cat_id": 32152,
        "meta_element_set_no": 999,
        "meta_rev_at_epoch": 62452,
        "meta_bstar": 0.0019545,
        "meta_mean_motion_dot": 8.814e-05,
        "meta_mean_motion_ddot": 0,
        "tle_line1": "1 32152U 99025CSW 25335.71769172  .00008814  00000+0  19545-2 0  9992",
        "tle_line2": "2 32152  98.7602 136.2993 0055378 234.9991 124.6000 14.56407468624522"
      },
      "geometry": {
        "type": "Point",
        "coordinates": [
          -40.54303459025937,
          16.080326928513898
        ]
      }
    },
    {
      "type": "Feature",
      "properties": {
        "norad_id": 32153,
        "name": "FENGYUN 1C DEB",
        "group": "fengyun-1c-debris",
        "lat": 68.30787312089892,
        "lon": 155.98192253527526,
        "alt_km": 870.3646730535502,
        "timestamp": "2025-12-02T07:10:09.401152+00:00",
        "meta_object_name": "FENGYUN 1C DEB",
        "meta_object_id": "1999-025CSX",
        "meta_epoch": "2025-12-01T12:36:09.592128",
        "meta_mean_motion": 14.48662778,
        "meta_eccentricity": 0.02070632,
        "meta_inclination": 98.7701,
        "meta_ra_of_asc_node": 178.0134,
        "meta_arg_of_pericenter": 255.2407,
        "meta_mean_anomaly": 102.576,
        "meta_ephemeris_type": 0,
        "meta_classification_type": "U",
        "meta_norad_cat_id": 32153,
        "meta_element_set_no": 999,
        "meta_rev_at_epoch": 97061,
        "meta_bstar": 0.00036967855,
        "meta_mean_motion_dot": 1.766e-05,
        "meta_mean_motion_ddot": 0,
        "tle_line1": "1 32153U 99025CSX 25335.52511102  .00001766  00000+0  36968-3 0  9998",
        "tle_line2": "2 32153  98.7701 178.0134 0207063 255.2407 102.5760 14.48662778970612"
      },
      "geometry": {
        "type": "Point",
        "coordinates": [
          155.98192253527526,
          68.30787312089892
        ]
      }
    },
    {
      "type": "Feature",
      "properties": {
        "norad_id": 32155,
        "name": "FENGYUN 1C DEB",
        "group": "fengyun-1c-debris",
        "lat": -74.2172629625434,
        "lon": -60.54962268938109,
        "alt_km": 740.8640947819413,
        "timestamp": "2025-12-02T07:10:09.401164+00:00",
        "meta_object_name": "FENGYUN 1C DEB",
        "meta_object_id": "1999-025CSZ",
        "meta_epoch": "2025-11-30T01:53:48.632640",
        "meta_mean_motion": 14.32890455,
        "meta_eccentricity": 0.00691431,
        "meta_inclination": 98.9496,
        "meta_ra_of_asc_node": 263.2731,
        "meta_arg_of_pericenter": 277.7319,
        "meta_mean_anomaly": 81.6016,
        "meta_ephemeris_type": 0,
        "meta_classification_type": "U",
        "meta_norad_cat_id": 32155,
        "meta_element_set_no": 999,
        "meta_rev_at_epoch": 70041,
        "meta_bstar": 0.00066630415,
        "meta_mean_motion_dot": 1.821e-05,
        "meta_mean_motion_ddot": 0,
        "tle_line1": "1 32155U 99025CSZ 25334.07903510  .00001821  00000+0  66630-3 0  9998",
        "tle_line2": "2 32155  98.9496 263.2731 0069143 277.7319  81.6016 14.32890455700411"
      },
      "geometry": {
        "type": "Point",
        "coordinates": [
          -60.54962268938109,
          -74.2172629625434
        ]
      }
    },
    {
      "type": "Feature",
      "properties": {
        "norad_id": 32156,
        "name": "FENGYUN 1C DEB",
        "group": "fengyun-1c-debris",
        "lat": -33.17876329794249,
        "lon": 151.2457667284855,
        "alt_km": 821.2283038827027,
        "timestamp": "2025-12-02T07:10:09.401174+00:00",
        "meta_object_name": "FENGYUN 1C DEB",
        "meta_object_id": "1999-025CTA",
        "meta_epoch": "2025-11-28T04:22:59.204352",
        "meta_mean_motion": 14.31912456,
        "meta_eccentricity": 0.00824268,
        "meta_inclination": 99.3546,
        "meta_ra_of_asc_node": 140.6244,
        "meta_arg_of_pericenter": 99.0063,
        "meta_mean_anomaly": 262.0458,
        "meta_ephemeris_type": 0,
        "meta_classification_type": "U",
        "meta_norad_cat_id": 32156,
        "meta_element_set_no": 999,
        "meta_rev_at_epoch": 64612,
        "meta_bstar": 0.00036827986,
        "meta_mean_motion_dot": 9.74e-06,
        "meta_mean_motion_ddot": 0,
        "tle_line1": "1 32156U 99025CTA 25332.18262968  .00000974  00000+0  36828-3 0  9998",
        "tle_line2": "2 32156  99.3546 140.6244 0082426  99.0063 262.0458 14.31912456646127"
      },
      "geometry": {
        "type": "Point",
        "coordinates": [
          151.2457667284855,
          -33.17876329794249
        ]
      }
    },
    {
      "type": "Feature",
      "properties": {
        "norad_id": 32160,
        "name": "FENGYUN 1C DEB",
        "group": "fengyun-1c-debris",
        "lat": -74.84897724410634,
        "lon": 168.39335066779813,
        "alt_km": 791.1403270384026,
        "timestamp": "2025-12-02T07:10:09.401184+00:00",
        "meta_object_name": "FENGYUN 1C DEB",
        "meta_object_id": "1999-025CTE",
        "meta_epoch": "2025-11-30T17:06:25.156224",
        "meta_mean_motion": 14.37515482,
        "meta_eccentricity": 0.00825551,
        "meta_inclination": 98.8811,
        "meta_ra_of_asc_node": 131.4847,
        "meta_arg_of_pericenter": 34.3707,
        "meta_mean_anomaly": 326.2781,
        "meta_ephemeris_type": 0,
        "meta_classification_type": "U",
        "meta_norad_cat_id": 32160,
        "meta_element_set_no": 999,
        "meta_rev_at_epoch": 95714,
        "meta_bstar": 0.00043281688,
        "meta_mean_motion_dot": 1.3e-05,
        "meta_mean_motion_ddot": 0,
        "tle_line1": "1 32160U 99025CTE 25334.71279116  .00001300  00000+0  43282-3 0  9993",
        "tle_line2": "2 32160  98.8811 131.4847 0082555  34.3707 326.2781 14.37515482957141"
      },
      "geometry": {
        "type": "Point",
        "coordinates": [
          168.39335066779813,
          -74.84897724410634
        ]
      }
    }
  ]
}